FENGYUN 1C DEB          
1 33690U 99025DGB 17345.12634934  .00000724  00000-0  31769-3 0  9990
2 33690  98.7692  41.7259 0049198   7.3067  22.4046 14.26095544513799
